[{"OBJECT_NAME":"ONEWEB-0716","OBJECT_ID":"2023-004AP","EPOCH":"2026-03-09T20:56:27.172608","MEAN_MOTION":13.17649235,"ECCENTRICITY":0.00017718,"INCLINATION":87.915,"RA_OF_ASC_NODE":25.5889,"ARG_OF_PERICENTER":87.9288,"MEAN_ANOMALY":272.2047,"EPHEMERIS_TYPE":0,"CLASSIFICATION_TYPE":"U","NORAD_CAT_ID":55177,"ELEMENT_SET_NO":999,"REV_AT_EPOCH":15450,"BSTAR":9.3738252e-5,"MEAN_MOTION_DOT":4.9e-7,"MEAN_MOTION_DDOT":0},{"OBJECT_NAME":"SL-14 DEB","OBJECT_ID":"1991-056DD","EPOCH":"2026-02-22T02:50:15.122976","MEAN_MOTION":13.24730307,"ECCENTRICITY":0.0033433,"INCLINATION":82.5458,"RA_OF_ASC_NODE":201.7449,"ARG_OF_PERICENTER":282.2949,"MEAN_ANOMALY":77.4435,"EPHEMERIS_TYPE":0,"CLASSIFICATION_TYPE":"U","NORAD_CAT_ID":47079,"ELEMENT_SET_NO":999,"REV_AT_EPOCH":25649,"BSTAR":0.0013771,"MEAN_MOTION_DOT":6.08e-6,"MEAN_MOTION_DDOT":0}]
